[{"OBJECT_NAME":"STARLINK-1434","OBJECT_ID":"2020-035BH","EPOCH":"2026-03-09T05:47:35.213856","MEAN_MOTION":15.26724568,"ECCENTRICITY":0.00053438,"INCLINATION":53.0547,"RA_OF_ASC_NODE":22.1128,"ARG_OF_PERICENTER":88.04,"MEAN_ANOMALY":272.121,"EPHEMERIS_TYPE":0,"CLASSIFICATION_TYPE":"U","NORAD_CAT_ID":45712,"ELEMENT_SET_NO":999,"REV_AT_EPOCH":31932,"BSTAR":0.0020295208,"MEAN_MOTION_DOT":0.00054112,"MEAN_MOTION_DDOT":0},{"OBJECT_NAME":"STARLINK-31865","OBJECT_ID":"2024-093K","EPOCH":"2026-03-09T09:49:12.913536","MEAN_MOTION":15.27566521,"ECCENTRICITY":4.697e-5,"INCLINATION":42.9992,"RA_OF_ASC_NODE":210.3825,"ARG_OF_PERICENTER":238.9678,"MEAN_ANOMALY":121.1128,"EPHEMERIS_TYPE":0,"CLASSIFICATION_TYPE":"U","NORAD_CAT_ID":59791,"ELEMENT_SET_NO":999,"REV_AT_EPOCH":10265,"BSTAR":9.1818926e-5,"MEAN_MOTION_DOT":2.265e-5,"MEAN_MOTION_DDOT":0}]
