STARLINK-1434           
1 45712U 20035BH  26068.24137979  .00054112  00000+0  20295-2 0  9995
2 45712  53.0547  22.1128 0005343  88.0400 272.1210 15.26724568319325
STARLINK-31865          
1 59791U 24093K   26068.40917724  .00002265  00000+0  91819-4 0  9991
2 59791  42.9992 210.3825 0000469 238.9678 121.1128 15.27566521102651
